{"type": "FeatureCollection", "features": [ {"type": "Feature", "properties": {"norad_id": 66546, "name": "SHIJIAN-30B", "group": "last-30-days", "lat": -48.661490501737156, "lon": -139.87622333000667, "alt_km": 526.0796762401042, "timestamp": "2025-12-11T22:43:46.023569+00:00", "meta": {"OBJECT_NAME": "SHIJIAN-30B", "OBJECT_ID": "2025-266B", "EPOCH": "2025-12-11T13:42:13.679424", "MEAN_MOTION": 15.15367073, "ECCENTRICITY": 0.00104527, "INCLINATION": 51.7966, "RA_OF_ASC_NODE": 338.345, "ARG_OF_PERICENTER": 355.1974, "MEAN_ANOMALY": 4.89, "EPHEMERIS_TYPE": 0, "CLASSIFICATION_TYPE": "U", "NORAD_CAT_ID": 66546, "ELEMENT_SET_NO": 999, "REV_AT_EPOCH": 340, "BSTAR": 0.00097735743, "MEAN_MOTION_DOT": 0.00018433, "MEAN_MOTION_DDOT": 0}, "tle": {"line1": "1 66546U 25266B   25345.57099166  .00018433  00000+0  97736-3 0  9993", "line2": "2 66546  51.7966 338.3450 0010452 355.1974   4.8900 15.15367073  3401"}}, "geometry": {"type": "Point", "coordinates": [-139.87622333000667, -48.661490501737156]}}, {"type": "Feature", "properties": {"norad_id": 66547, "name": "SHIJIAN-30C", "group": "last-30-days", "lat": -47.831434693871024, "lon": -143.01144413472588, "alt_km": 525.0325221243857, "timestamp": "2025-12-11T22:43:46.023581+00:00", "meta": {"OBJECT_NAME": "SHIJIAN-30C", "OBJECT_ID": "2025-266C", "EPOCH": "2025-12-11T12:07:53.510016", "MEAN_MOTION": 15.15470996, "ECCENTRICITY": 0.00113312, "INCLINATION": 51.7976, "RA_OF_ASC_NODE": 338.6584, "ARG_OF_PERICENTER": 346.4221, "MEAN_ANOMALY": 13.6449, "EPHEMERIS_TYPE": 0, "CLASSIFICATION_TYPE": "U", "NORAD_CAT_ID": 66547, "ELEMENT_SET_NO": 999, "REV_AT_EPOCH": 339, "BSTAR": 0.00089063311, "MEAN_MOTION_DOT": 0.0001682, "MEAN_MOTION_DDOT": 0}, "tle": {"line1": "1 66547U 25266C   25345.50548044  .00016820  00000+0  89063-3 0  9993", "line2": "2 66547  51.7976 338.6584 0011331 346.4221  13.6449 15.15470996  3392"}}, "geometry": {"type": "Point", "coordinates": [-143.01144413472588, -47.831434693871024]}}, {"type": "Feature", "properties": {"norad_id": 66548, "name": "CZ-2C R/B", "group": "last-30-days", "lat": -6.560443578096794, "lon": -30.092479500200902, "alt_km": 534.4812856957897, "timestamp": "2025-12-11T22:43:46.023592+00:00", "meta": {"OBJECT_NAME": "CZ-2C R/B", "OBJECT_ID": "2025-266D", "EPOCH": "2025-12-11T14:55:44.131584", "MEAN_MOTION": 15.30139901, "ECCENTRICITY": 0.0083977, "INCLINATION": 52.0557, "RA_OF_ASC_NODE": 336.6048, "ARG_OF_PERICENTER": 169.17, "MEAN_ANOMALY": 191.1119, "EPHEMERIS_TYPE": 0, "CLASSIFICATION_TYPE": "U", "NORAD_CAT_ID": 66548, "ELEMENT_SET_NO": 999, "REV_AT_EPOCH": 344, "BSTAR": 0.00046623167, "MEAN_MOTION_DOT": 0.00014997, "MEAN_MOTION_DDOT": 0}, "tle": {"line1": "1 66548U 25266D   25345.62203856  .00014997  00000+0  46623-3 0  9994", "line2": "2 66548  52.0557 336.6048 0083977 169.1700 191.1119 15.30139901  3449"}}, "geometry": {"type": "Point", "coordinates": [-30.092479500200902, -6.560443578096794]}}, {"type": "Feature", "properties": {"norad_id": 66549, "name": "SHIJIAN-28", "group": "last-30-days", "lat": 11.502788315087544, "lon": 6.780815041670753, "alt_km": 9327.98687116268, "timestamp": "2025-12-11T22:43:46.023605+00:00", "meta": {"OBJECT_NAME": "SHIJIAN-28", "OBJECT_ID": "2025-277A", "EPOCH": "2025-12-01T04:36:42.476256", "MEAN_MOTION": 2.08595383, "ECCENTRICITY": 0.6308324, "INCLINATION": 11.5392, "RA_OF_ASC_NODE": 275.706, "ARG_OF_PERICENTER": 179.9335, "MEAN_ANOMALY": 180.3971, "EPHEMERIS_TYPE": 0, "CLASSIFICATION_TYPE": "U", "NORAD_CAT_ID": 66549, "ELEMENT_SET_NO": 999, "REV_AT_EPOCH": 5, "BSTAR": 0, "MEAN_MOTION_DOT": -3.3e-07, "MEAN_MOTION_DDOT": 0}, "tle": {"line1": "1 66549U 25277A   25335.19215829 -.00000033  00000+0  00000+0 0  9993", "line2": "2 66549  11.5392 275.7060 6308324 179.9335 180.3971  2.08595383    50"}}, "geometry": {"type": "Point", "coordinates": [6.780815041670753, 11.502788315087544]}}, {"type": "Feature", "properties": {"norad_id": 66550, "name": "CZ-7A R/B", "group": "last-30-days", "lat": 3.608174880285081, "lon": -75.48550918207046, "alt_km": 30479.988753037756, "timestamp": "2025-12-11T22:43:46.023627+00:00", "meta": {"OBJECT_NAME": "CZ-7A R/B", "OBJECT_ID": "2025-277B", "EPOCH": "2025-12-11T12:15:39.945600", "MEAN_MOTION": 2.65298958, "ECCENTRICITY": 0.70570413, "INCLINATION": 14.4036, "RA_OF_ASC_NODE": 270.5234, "ARG_OF_PERICENTER": 187.6434, "MEAN_ANOMALY": 149.2328, "EPHEMERIS_TYPE": 0, "CLASSIFICATION_TYPE": "U", "NORAD_CAT_ID": 66550, "ELEMENT_SET_NO": 999, "REV_AT_EPOCH": 31, "BSTAR": 0.0010583352, "MEAN_MOTION_DOT": 0.01545385, "MEAN_MOTION_DDOT": 2.47923e-06}, "tle": {"line1": "1 66550U 25277B   25345.51087900  .01545385  24792-5  10583-2 0  9993", "line2": "2 66550  14.4036 270.5234 7057041 187.6434 149.2328  2.65298958   319"}}, "geometry": {"type": "Point", "coordinates": [-75.48550918207046, 3.608174880285081]}}, {"type": "Feature", "properties": {"norad_id": 66551, "name": "USA 568", "group": "last-30-days", "lat": 30.949302599681946, "lon": -142.18927687464108, "alt_km": 254.00313990029372, "timestamp": "2025-12-11T22:43:46.023638+00:00", "meta": {"OBJECT_NAME": "USA 568", "OBJECT_ID": "2024-134K", "EPOCH": "2025-12-02T16:00:03.000096", "MEAN_MOTION": 15.87051116, "ECCENTRICITY": 7.17e-05, "INCLINATION": 53.1571, "RA_OF_ASC_NODE": 236.7807, "ARG_OF_PERICENTER": 110.7411, "MEAN_ANOMALY": 313.9012, "EPHEMERIS_TYPE": 0, "CLASSIFICATION_TYPE": "U", "NORAD_CAT_ID": 66551, "ELEMENT_SET_NO": 999, "REV_AT_EPOCH": 262, "BSTAR": -0.0074303, "MEAN_MOTION_DOT": -0.01709685, "MEAN_MOTION_DDOT": 0}, "tle": {"line1": "1 66551U 24134K   25336.66670139 -.01709685  00000+0 -74303-2 0  9990", "line2": "2 66551  53.1571 236.7807 0000717 110.7411 313.9012 15.87051116  2624"}}, "geometry": {"type": "Point", "coordinates": [-142.18927687464108, 30.949302599681946]}}, {"type": "Feature", "properties": {"norad_id": 66554, "name": "GLOBAL-33", "group": "last-30-days", "lat": 2.6908592624059735, "lon": 64.56063762929631, "alt_km": 468.1340829080091, "timestamp": "2025-12-11T22:43:46.023649+00:00", "meta": {"OBJECT_NAME": "GLOBAL-33", "OBJECT_ID": "2025-267A", "EPOCH": "2025-12-11T14:53:12.552288", "MEAN_MOTION": 15.31613043, "ECCENTRICITY": 0.00043712, "INCLINATION": 42.0212, "RA_OF_ASC_NODE": 63.4559, "ARG_OF_PERICENTER": 46.3547, "MEAN_ANOMALY": 313.7652, "EPHEMERIS_TYPE": 0, "CLASSIFICATION_TYPE": "U", "NORAD_CAT_ID": 66554, "ELEMENT_SET_NO": 999, "REV_AT_EPOCH": 323, "BSTAR": 0.00061477883, "MEAN_MOTION_DOT": 0.00018974, "MEAN_MOTION_DDOT": 0}, "tle": {"line1": "1 66554U 25267A   25345.62028417  .00018974  00000+0  61478-3 0  9994", "line2": "2 66554  42.0212  63.4559 0004371  46.3547 313.7652 15.31613043  3237"}}, "geometry": {"type": "Point", "coordinates": [64.56063762929631, 2.6908592624059735]}}, {"type": "Feature", "properties": {"norad_id": 66555, "name": "ELECTRON KICK STAGE R/B", "group": "last-30-days", "lat": 37.7036415965043, "lon": 120.56751052057386, "alt_km": 457.2703940777328, "timestamp": "2025-12-11T22:43:46.023659+00:00", "meta": {"OBJECT_NAME": "ELECTRON KICK STAGE R/B", "OBJECT_ID": "2025-267B", "EPOCH": "2025-12-11T14:37:24.915360", "MEAN_MOTION": 15.32723055, "ECCENTRICITY": 0.00065972, "INCLINATION": 42.0196, "RA_OF_ASC_NODE": 63.3722, "ARG_OF_PERICENTER": 43.8355, "MEAN_ANOMALY": 316.3006, "EPHEMERIS_TYPE": 0, "CLASSIFICATION_TYPE": "U", "NORAD_CAT_ID": 66555, "ELEMENT_SET_NO": 999, "REV_AT_EPOCH": 323, "BSTAR": 0.0011433379, "MEAN_MOTION_DOT": 0.00036872, "MEAN_MOTION_DDOT": 0}, "tle": {"line1": "1 66555U 25267B   25345.60931615  .00036872  00000+0  11433-2 0  9998", "line2": "2 66555  42.0196  63.3722 0006597  43.8355 316.3006 15.32723055  3239"}}, "geometry": {"type": "Point", "coordinates": [120.56751052057386, 37.7036415965043]}}, {"type": "Feature", "properties": {"norad_id": 66557, "name": "STARLINK-35699", "group": "last-30-days", "lat": -7.730357951188716, "lon": 117.45915781074865, "alt_km": 415.3730348816316, "timestamp": "2025-12-11T22:43:46.023671+00:00", "meta": {"OBJECT_NAME": "STARLINK-35699", "OBJECT_ID": "2025-268A", "EPOCH": "2025-12-11T14:00:01.999872", "MEAN_MOTION": 15.50711148, "ECCENTRICITY": 0.0001584, "INCLINATION": 42.9997, "RA_OF_ASC_NODE": 127.9638, "ARG_OF_PERICENTER": 257.825, "MEAN_ANOMALY": 218.037, "EPHEMERIS_TYPE": 0, "CLASSIFICATION_TYPE": "U", "NORAD_CAT_ID": 66557, "ELEMENT_SET_NO": 999, "REV_AT_EPOCH": 448, "BSTAR": -0.00026010979, "MEAN_MOTION_DOT": -0.00015643, "MEAN_MOTION_DDOT": 0}, "tle": {"line1": "1 66557U 25268A   25345.58335648 -.00015643  00000+0 -26011-3 0  9996", "line2": "2 66557  42.9997 127.9638 0001584 257.8250 218.0370 15.50711148  4484"}}, "geometry": {"type": "Point", "coordinates": [117.45915781074865, -7.730357951188716]}}, {"type": "Feature", "properties": {"norad_id": 66558, "name": "STARLINK-35695", "group": "last-30-days", "lat": -6.514790089496346, "lon": 118.79140369874902, "alt_km": 415.4569145774294, "timestamp": "2025-12-11T22:43:46.023684+00:00", "meta": {"OBJECT_NAME": "STARLINK-35695", "OBJECT_ID": "2025-268B", "EPOCH": "2025-12-11T14:00:01.999872", "MEAN_MOTION": 15.50668257, "ECCENTRICITY": 0.0003544, "INCLINATION": 42.9998, "RA_OF_ASC_NODE": 127.9587, "ARG_OF_PERICENTER": 263.7088, "MEAN_ANOMALY": 214.0541, "EPHEMERIS_TYPE": 0, "CLASSIFICATION_TYPE": "U", "NORAD_CAT_ID": 66558, "ELEMENT_SET_NO": 999, "REV_AT_EPOCH": 448, "BSTAR": -0.0026715087, "MEAN_MOTION_DOT": -0.00154553, "MEAN_MOTION_DDOT": 0}, "tle": {"line1": "1 66558U 25268B   25345.58335648 -.00154553  00000+0 -26715-2 0  9991", "line2": "2 66558  42.9998 127.9587 0003544 263.7088 214.0541 15.50668257  4480"}}, "geometry": {"type": "Point", "coordinates": [118.79140369874902, -6.514790089496346]}}]}